{
    "links": {
        "self": "http://www.neowsapp.com/rest/v1/neo/3788162?api_key=iIulBulltgU6a56xZRHN4H3l9WmuAYTsLGpBGhQ2"
    },
    "id": "3788162",
    "neo_reference_id": "3788162",
    "name": "(2017 UJ44)",
    "designation": "2017 UJ44",
    "nasa_jpl_url": "http://ssd.jpl.nasa.gov/sbdb.cgi?sstr=3788162",
    "absolute_magnitude_h": 25.5,
    "estimated_diameter": {
        "kilometers": {
            "estimated_diameter_min": 0.0211132445,
            "estimated_diameter_max": 0.0472106499
        },
        "meters": {
            "estimated_diameter_min": 21.113244479,
            "estimated_diameter_max": 47.2106498806
        },
        "miles": {
            "estimated_diameter_min": 0.0131191578,
            "estimated_diameter_max": 0.0293353287
        },
        "feet": {
            "estimated_diameter_min": 69.2691770164,
            "estimated_diameter_max": 154.8905885541
        }
    },
    "is_potentially_hazardous_asteroid": false,
    "close_approach_data": [
        {
            "close_approach_date": "2017-10-28",
            "close_approach_date_full": "2017-Oct-28 09:15",
            "epoch_date_close_approach": 1509182100000,
            "relative_velocity": {
                "kilometers_per_second": "5.6232807565",
                "kilometers_per_hour": "20243.8107232782",
                "miles_per_hour": "12578.7167241392"
            },
            "miss_distance": {
                "astronomical": "0.0929319573",
                "lunar": "36.1505313897",
                "kilometers": "13902422.867010951",
                "miles": "8638564.9939790838"
            },
            "orbiting_body": "Earth"
        }
    ],
    "orbital_data": {
        "orbit_id": "3",
        "orbit_determination_date": "2019-12-04 07:16:59",
        "first_observation_date": "2017-10-28",
        "last_observation_date": "2017-10-31",
        "data_arc_in_days": 3,
        "observations_used": 17,
        "orbit_uncertainty": "8",
        "minimum_orbit_intersection": ".0910077",
        "jupiter_tisserand_invariant": "3.387",
        "epoch_osculation": "2458055.5",
        "eccentricity": ".5302387570560178",
        "semi_major_axis": "2.302379430976272",
        "inclination": "2.455379367314175",
        "ascending_node_longitude": "63.50902579101754",
        "orbital_period": "1276.038482449886",
        "perihelion_distance": "1.081568623224072",
        "perihelion_argument": "335.7520388856058",
        "aphelion_distance": "3.523190238728471",
        "perihelion_time": "2458057.979805221880",
        "mean_anomaly": "359.3003895320125",
        "mean_motion": ".2821231529858179",
        "equinox": "J2000",
        "orbit_class": {
            "orbit_class_type": "AMO",
            "orbit_class_description": "Near-Earth asteroid orbits similar to that of 1221 Amor",
            "orbit_class_range": "1.017 AU < q (perihelion) < 1.3 AU"
        }
    },
    "is_sentry_object": false
}